[Satellite]
VERSION=1.1
NAME=STARLINK-1330
NICKNAME=STARLINK-1330
TLE1=1 45577U 20025AY  20141.50001157 -.00016493  00000-0 -17441-3 0  9999
TLE2=2 45577  52.9984 262.5666 0001221  92.2953 118.8817 15.62787493  5063
STATUS=0
